{
  "norad_id": 45453,
  "name": "ONEWEB-0050",
  "history": [
    {
      "epoch": "2026-03-28T21:33:25.662816Z",
      "apogee_km": 598.5196903273809,
      "perigee_km": 597.0346577180144,
      "latitude_deg": 5.850757652989136e-07,
      "longitude_deg": 94.45831587393359,
      "height_km": 601.3478105136785,
      "semi_major_axis_km": 6975.914174022698,
      "eccentricity": 0.00010644,
      "inclination_deg": 88.9229,
      "raan_deg": 244.1273,
      "arg_perigee_deg": 235.8484,
      "mean_anomaly_deg": 124.2644,
      "mean_motion_rev_day": 14.90050779
    },
    {
      "epoch": "2026-03-29T04:00:15.140160Z",
      "apogee_km": 598.5261321459275,
      "perigee_km": 597.0095704312571,
      "latitude_deg": -2.603814114021353e-06,
      "longitude_deg": -2.5494117863527377,
      "height_km": 601.3744339695417,
      "semi_major_axis_km": 6975.904851288592,
      "eccentricity": 0.0001087,
      "inclination_deg": 88.923,
      "raan_deg": 244.0905,
      "arg_perigee_deg": 233.3363,
      "mean_anomaly_deg": 126.7766,
      "mean_motion_rev_day": 14.90053766
    }
  ]
}